parent,node,branch.length,label,isTip,x,y,branch,angle,tip_label,scientificName,spp,Simpleton.grouping.code,family,overwintering.stage,voltinism,notes,X,X.1
135,1,38.940362,Pholisora catullus,TRUE,119.50474,8,100.034559,22.15384615,Hesperiidae_Pyrginae_Carcharodini_Pholisora_catullus,Pholisora catullus,Pholisora_catullus,RL,Hesperiidae,L,M,,NA,
135,2,38.940362,Staphylus hayhurstii,TRUE,119.50474,9,100.034559,24.92307692,Hesperiidae_Pyrginae_Carcharodini_Staphylus_hayhurstii,Staphylus hayhurstii,Staphylus_hayhurstii,RL,Hesperiidae,L,M,,NA,
138,3,7.563044,Erynnis brizo,TRUE,119.50474,11,115.723218,30.46153846,Hesperiidae_Pyrginae_Erynnini_Erynnis_brizo,Erynnis brizo,Erynnis_brizo,RL,Hesperiidae,NA,NA,NA,NA,NA
138,4,7.563044,Erynnis icelus,TRUE,119.50474,12,115.723218,33.23076923,Hesperiidae_Pyrginae_Erynnini_Erynnis_icelus,Erynnis icelus,Erynnis_icelus,RL,Hesperiidae,NA,NA,NA,NA,NA
140,5,11.562194,Erynnis martialis,TRUE,119.50474,13,113.723643,36,Hesperiidae_Pyrginae_Erynnini_Erynnis_martialis,Erynnis martialis,Erynnis_martialis,RL,Hesperiidae,L,M,,NA,
140,6,11.562194,Erynnis funeralis,TRUE,119.50474,14,113.723643,38.76923077,Hesperiidae_Pyrginae_Erynnini_Erynnis_funeralis,Erynnis funeralis,Erynnis_funeralis,RL,Hesperiidae,L,M,,NA,
142,7,7.393726,Erynnis persius,TRUE,119.50474,17,115.807877,47.07692308,Hesperiidae_Pyrginae_Erynnini_Erynnis_persius,Erynnis persius,Erynnis_persius,RL,Hesperiidae,L,U,,NA,
143,8,0.28628,Erynnis baptisiae,TRUE,119.504741,18,119.361601,49.84615385,Hesperiidae_Pyrginae_Erynnini_Erynnis_baptisiae,Erynnis baptisiae,Erynnis_baptisiae,RL,Hesperiidae,L,M,,NA,
143,9,0.28628,Erynnis lucilius,TRUE,119.504741,19,119.361601,52.61538462,Hesperiidae_Pyrginae_Erynnini_Erynnis_lucilius,Erynnis lucilius,Erynnis_lucilius,RL,Hesperiidae,L,M,,NA,
144,10,5.591372,Erynnis horatius,TRUE,119.504738,15,116.709052,41.53846154,Hesperiidae_Pyrginae_Erynnini_Erynnis_horatius,Erynnis horatius,Erynnis_horatius,RL,Hesperiidae,L,M,,NA,
144,11,5.591373,Erynnis juvenalis,TRUE,119.504739,16,116.7090525,44.30769231,Hesperiidae_Pyrginae_Erynnini_Erynnis_juvenalis,Erynnis juvenalis,Erynnis_juvenalis,RL,Hesperiidae,L,U,,NA,
136,12,52.384112,Pyrgus centaureae,TRUE,119.50474,10,93.312684,27.69230769,Hesperiidae_Pyrginae_Pyrgini_Pyrgus_centaureae,Pyrgus centaureae,Pyrgus_centaureae,RL,Hesperiidae,NA,NA,NA,NA,NA
149,13,11.258383,Megathymus streckeri,TRUE,119.504741,29,113.8755495,80.30769231,Hesperiidae_Hesperiinae__Megathymus_streckeri,Megathymus streckeri,Megathymus_streckeri,RL,Hesperiidae,NA,NA,NA,NA,NA
149,14,11.258383,Megathymus cofaqui,TRUE,119.504741,30,113.8755495,83.07692308,Hesperiidae_Hesperiinae__Megathymus_cofaqui,Megathymus cofaqui,Megathymus_cofaqui,RL,Hesperiidae,NA,NA,NA,NA,NA
148,15,30.067156,Megathymus yuccae,TRUE,119.504741,28,104.471163,77.53846154,Hesperiidae_Hesperiinae__Megathymus_yuccae,Megathymus yuccae,Megathymus_yuccae,RL,Hesperiidae,NA,NA,NA,NA,NA
154,16,22.369616,Atrytone arogos,TRUE,119.504742,40,108.319934,110.7692308,Hesperiidae_Hesperiinae_Hesperiini_Atrytone_arogos,Atrytone arogos,Atrytone_arogos,RL,Hesperiidae,NA,NA,NA,NA,NA
155,17,9.613398,Problema byssus,TRUE,119.504742,41,114.698043,113.5384615,Hesperiidae_Hesperiinae_Hesperiini_Problema_byssus,Problema byssus,Problema_byssus,RL,Hesperiidae,L,F,,NA,
155,18,9.613398,Problema bulenta,TRUE,119.504742,42,114.698043,116.3076923,Hesperiidae_Hesperiinae_Hesperiini_Problema_bulenta,Problema bulenta,Problema_bulenta,RL,Hesperiidae,NA,NA,NA,NA,NA
158,19,10.068701,Euphyes berryi,TRUE,119.504742,47,114.4703915,130.1538462,Hesperiidae_Hesperiinae_Hesperiini_Euphyes_berryi,Euphyes berryi,Euphyes_berryi,RL,Hesperiidae,NA,NA,NA,NA,NA
160,20,0.047956,Euphyes bayensis,TRUE,119.504742,48,119.480764,132.9230769,Hesperiidae_Hesperiinae_Hesperiini_Euphyes_bayensis,Euphyes bayensis,Euphyes_bayensis,RL,Hesperiidae,NA,NA,NA,NA,NA
160,21,0.047956,Euphyes dion,TRUE,119.504742,49,119.480764,135.6923077,Hesperiidae_Hesperiinae_Hesperiini_Euphyes_dion,Euphyes dion,Euphyes_dion,RL,Hesperiidae,L,F,,NA,
161,22,8.112707,Euphyes pilatka,TRUE,119.504742,50,115.4483885,138.4615385,Hesperiidae_Hesperiinae_Hesperiini_Euphyes_pilatka,Euphyes pilatka,Euphyes_pilatka,RL,Hesperiidae,L,M,,NA,
161,23,8.112707,Euphyes dukesi,TRUE,119.504742,51,115.4483885,141.2307692,Hesperiidae_Hesperiinae_Hesperiini_Euphyes_dukesi,Euphyes dukesi,Euphyes_dukesi,RL,Hesperiidae,NA,NA,NA,NA,NA
162,24,0.384385,Nastra neamathla,TRUE,119.504742,45,119.3125495,124.6153846,Hesperiidae_Hesperiinae_Moncini_Nastra_neamathla,Nastra neamathla,Nastra_neamathla,RP,Hesperiidae,NA,NA,NA,NA,NA
162,25,0.384385,Euphyes vestris,TRUE,119.504742,46,119.3125495,127.3846154,Hesperiidae_Hesperiinae_Hesperiini_Euphyes_vestris,Euphyes vestris,Euphyes_vestris,RL,Hesperiidae,L,F,,NA,
163,26,4.433226,Euphyes bimacula,TRUE,119.504743,43,117.28813,119.0769231,Hesperiidae_Hesperiinae_Hesperiini_Euphyes_bimacula,Euphyes bimacula,Euphyes_bimacula,RL,Hesperiidae,NA,NA,NA,NA,NA
163,27,4.433226,Euphyes arpa,TRUE,119.504743,44,117.28813,121.8461538,Hesperiidae_Hesperiinae_Hesperiini_Euphyes_arpa,Euphyes arpa,Euphyes_arpa,RL,Hesperiidae,L,M,,NA,
166,28,3.97325,Poanes massasoit,TRUE,119.504743,52,117.518118,144,Hesperiidae_Hesperiinae_Hesperiini_Poanes_massasoit,Poanes massasoit,Poanes_massasoit,RL,Hesperiidae,NA,NA,NA,NA,NA
166,29,3.97325,Poanes viator,TRUE,119.504743,53,117.518118,146.7692308,Hesperiidae_Hesperiinae_Hesperiini_Poanes_viator,Poanes viator,Poanes_viator,RL,Hesperiidae,L,F,,NA,
167,30,7.58553,Poanes aaroni,TRUE,119.504743,54,115.711978,149.5384615,Hesperiidae_Hesperiinae_Hesperiini_Poanes_aaroni,Poanes aaroni,Poanes_aaroni,RL,Hesperiidae,L,M,,NA,
167,31,7.58553,Poanes yehl,TRUE,119.504743,55,115.711978,152.3076923,Hesperiidae_Hesperiinae_Hesperiini_Poanes_yehl,Poanes yehl,Poanes_yehl,RL,Hesperiidae,NA,NA,NA,NA,NA
171,32,12.955102,Polites themistocles,TRUE,119.504742,58,113.027191,160.6153846,Hesperiidae_Hesperiinae_Hesperiini_Polites_themistocles,Polites themistocles,Polites_themistocles,RP,Hesperiidae,NA,NA,NA,NA,NA
171,33,12.955103,Polites baracoa,TRUE,119.504743,59,113.0271915,163.3846154,Hesperiidae_Hesperiinae_Hesperiini_Polites_baracoa,Polites baracoa,Polites_baracoa,RL,Hesperiidae,NA,NA,NA,NA,NA
170,34,16.244658,Wallengrenia egeremet,TRUE,119.504743,57,111.382414,157.8461538,Hesperiidae_Hesperiinae_Hesperiini_Wallengrenia_egeremet,Wallengrenia egeremet,Wallengrenia_egeremet,RL,Hesperiidae,NA,NA,NA,NA,NA
169,35,17.682661,Polites mystic,TRUE,119.504743,56,110.6634125,155.0769231,Hesperiidae_Hesperiinae_Hesperiini_Polites_mystic,Polites mystic,Polites_mystic,RL,Hesperiidae,NA,NA,NA,NA,NA
174,36,6.75033,Hesperia meskei,TRUE,119.504745,62,116.12958,171.6923077,Hesperiidae_Hesperiinae_Hesperiini_Hesperia_meskei,Hesperia meskei,Hesperia_meskei,RL,Hesperiidae,NA,NA,NA,NA,NA
176,37,5.369355,Hesperia metea,TRUE,119.504745,64,116.8200675,177.2307692,Hesperiidae_Hesperiinae_Hesperiini_Hesperia_metea,Hesperia metea,Hesperia_metea,RL,Hesperiidae,NA,NA,NA,NA,NA
176,38,5.369355,Hesperia attalus,TRUE,119.504745,65,116.8200675,180,Hesperiidae_Hesperiinae_Hesperiini_Hesperia_attalus,Hesperia attalus,Hesperia_attalus,RL,Hesperiidae,NA,NA,NA,NA,NA
175,39,6.719606,Hesperia leonardus,TRUE,119.504745,63,116.144942,174.4615385,Hesperiidae_Hesperiinae_Hesperiini_Hesperia_leonardus,Hesperia leonardus,Hesperia_leonardus,RL,Hesperiidae,NA,NA,NA,NA,NA
173,40,7.138997,Hesperia sassacus,TRUE,119.504744,61,115.9352455,168.9230769,Hesperiidae_Hesperiinae_Hesperiini_Hesperia_sassacus,Hesperia sassacus,Hesperia_sassacus,RL,Hesperiidae,NA,NA,NA,NA,NA
172,41,9.086165,Hesperia comma,TRUE,119.504742,60,114.9616595,166.1538462,Hesperiidae_Hesperiinae_Hesperiini_Hesperia_comma,Hesperia comma,Hesperia_comma,RE,Hesperiidae,M,U,,NA,
179,42,28.855983,Thymelicus lineola,TRUE,119.504742,33,105.0767505,91.38461538,Hesperiidae_Hesperiinae_Thymelicini_Thymelicus_lineola,Thymelicus lineola,Thymelicus_lineola,RE,Hesperiidae,E,U,,NA,
180,43,4.28455,Oarisma poweshiek,TRUE,119.504743,34,117.362468,94.15384615,Hesperiidae_Hesperiinae_Thymelicini_Oarisma_poweshiek,Oarisma poweshiek,Oarisma_poweshiek,RL,Hesperiidae,NA,NA,NA,NA,NA
180,44,4.28455,Oarisma garita,TRUE,119.504743,35,117.362468,96.92307692,Hesperiidae_Hesperiinae_Thymelicini_Oarisma_garita,Oarisma garita,Oarisma_garita,RL,Hesperiidae,L,U,,NA,
178,45,38.115564,Panoquina panoquin,TRUE,119.504743,32,100.446961,88.61538462,Hesperiidae_Hesperiinae_Carystini_Panoquina_panoquin,Panoquina panoquin,Panoquina_panoquin,RL,Hesperiidae,NA,NA,NA,NA,NA
183,46,24.613219,Lerema accius,TRUE,119.504744,38,107.1981345,105.2307692,Hesperiidae_Hesperiinae_Moncini_Lerema_accius,Lerema accius,Lerema_accius,RP,Hesperiidae,P,M,,NA,
183,47,24.613219,Polites origenes,TRUE,119.504744,39,107.1981345,108,Hesperiidae_Hesperiinae_Hesperiini_Polites_origenes,Polites origenes,Polites_origenes,RL,Hesperiidae,NA,NA,NA,NA,NA
182,48,25.63482,Atrytonopsis hianna,TRUE,119.504744,37,106.687334,102.4615385,Hesperiidae_Hesperiinae_Hesperiini_Atrytonopsis_hianna,Atrytonopsis hianna,Atrytonopsis_hianna,RL,Hesperiidae,NA,NA,NA,NA,NA
181,49,33.0906,Amblyscirtes belli,TRUE,119.504744,36,102.959444,99.69230769,Hesperiidae_Hesperiinae_Moncini_Amblyscirtes_belli,Amblyscirtes belli,Amblyscirtes_belli,RL,Hesperiidae,NA,NA,NA,NA,NA
150,50,43.761342,Ancyloxypha numitor,TRUE,119.504742,31,97.624071,85.84615385,Hesperiidae_Hesperiinae_Thymelicini_Ancyloxypha_numitor,Ancyloxypha numitor,Ancyloxypha_numitor,RL,Hesperiidae,L,F,,NA,
146,51,61.517049,Carterocephalus palaemon,TRUE,119.504741,27,88.7462165,74.76923077,Hesperiidae_Heteropterinae__Carterocephalus_palaemon,Carterocephalus palaemon,Carterocephalus_palaemon,RL,Hesperiidae,L,U,,NA,
184,52,44.983905,Polygonus leo,TRUE,119.504739,20,97.0127865,55.38461538,Hesperiidae_Eudaminae__Polygonus_leo,Polygonus leo,Polygonus_leo,RL,Hesperiidae,NA,NA,NA,NA,NA
188,53,10.707699,Thorybes bathyllus,TRUE,119.50474,24,114.1508905,66.46153846,Hesperiidae_Eudaminae__Thorybes_bathyllus,Thorybes bathyllus,Thorybes_bathyllus,RL,Hesperiidae,L,F,,NA,
189,54,9.590077,Thorybes confusis,TRUE,119.504741,25,114.7097025,69.23076923,Hesperiidae_Eudaminae__Thorybes_confusis,Thorybes confusis,Thorybes_confusis,RL,Hesperiidae,NA,NA,NA,NA,NA
189,55,9.590076,Thorybes pylades,TRUE,119.50474,26,114.709702,72,Hesperiidae_Eudaminae__Thorybes_pylades,Thorybes pylades,Thorybes_pylades,RL,Hesperiidae,L,F,,NA,
187,56,15.463597,Achalarus lyciades,TRUE,119.50474,23,111.7729415,63.69230769,Hesperiidae_Eudaminae__Achalarus_lyciades,Achalarus lyciades,Achalarus_lyciades,RL,Hesperiidae,L,F,,NA,
186,57,26.709239,Autochton cellus,TRUE,119.50474,22,106.1501205,60.92307692,Hesperiidae_Eudaminae__Autochton_cellus,Autochton cellus,Autochton_cellus,RP,Hesperiidae,P,F,,NA,
185,58,31.763122,Epargyreus clarus,TRUE,119.50474,21,103.623179,58.15384615,Hesperiidae_Eudaminae__Epargyreus_clarus,Epargyreus clarus,Epargyreus_clarus,RP,Hesperiidae,NA,NA,NA,NA,NA
192,59,3.373065,Colias interior,TRUE,119.504741,72,117.8182085,199.3846154,Pieridae_Coliadinae__Colias_interior,Colias interior,Colias_interior,RL,Pieridae,L,U,,NA,
193,60,2.848719,Colias pelidne,TRUE,119.504742,73,118.0803825,202.1538462,Pieridae_Coliadinae__Colias_pelidne,Colias pelidne,Colias_pelidne,RL,Pieridae,NA,NA,NA,NA,NA
194,61,1.409927,Colias hecla,TRUE,119.504742,74,118.7997785,204.9230769,Pieridae_Coliadinae__Colias_hecla,Colias hecla,Colias_hecla,RL,Pieridae,NA,NA,NA,NA,NA
196,62,0.909646,Colias philodice,TRUE,119.504741,75,119.049918,207.6923077,Pieridae_Coliadinae__Colias_philodice,Colias philodice,Colias_philodice,RL,Pieridae,L,F,,NA,
196,63,0.909646,Colias eurytheme,TRUE,119.504741,76,119.049918,210.4615385,Pieridae_Coliadinae__Colias_eurytheme,Colias eurytheme,Colias_eurytheme,RL,Pieridae,M,M,,NA,
197,64,1.328573,Colias palaeno,TRUE,119.504741,77,118.8404545,213.2307692,Pieridae_Coliadinae__Colias_palaeno,Colias palaeno,Colias_palaeno,RL,Pieridae,NA,NA,NA,NA,NA
197,65,1.328573,Colias nastes,TRUE,119.504741,78,118.8404545,216,Pieridae_Coliadinae__Colias_nastes,Colias nastes,Colias_nastes,RL,Pieridae,NA,NA,NA,NA,NA
200,66,18.619634,Euchloe olympia,TRUE,119.504741,67,110.194924,185.5384615,Pieridae_Pierinae_Anthocharidini_Euchloe_olympia,Euchloe olympia,Euchloe_olympia,RP,Pieridae,NA,NA,NA,NA,NA
200,67,18.619634,Euchloe ausonides,TRUE,119.504741,68,110.194924,188.3076923,Pieridae_Pierinae_Anthocharidini_Euchloe_ausonides,Euchloe ausonides,Euchloe_ausonides,RP,Pieridae,P,M,,NA,
199,68,23.311344,Anthocharis midea,TRUE,119.50474,66,107.849068,182.7692308,Pieridae_Pierinae_Anthocharidini_Anthocharis_midea,Anthocharis midea,Anthocharis_midea,RP,Pieridae,NA,NA,NA,NA,NA
202,69,4.709293,Pieris virginiensis,TRUE,119.504741,70,117.1500945,193.8461538,Pieridae_Pierinae_Pierini_Pieris_virginiensis,Pieris virginiensis,Pieris_virginiensis,RP,Pieridae,NA,NA,NA,NA,NA
202,70,4.709293,Pieris oleracea,TRUE,119.504741,71,117.1500945,196.6153846,Pieridae_Pierinae_Pierini_Pieris_oleracea,Pieris oleracea,Pieris_oleracea,RP,Pieridae,NA,NA,NA,NA,NA
201,71,12.713368,Pieris rapae,TRUE,119.504742,69,113.148058,191.0769231,Pieridae_Pierinae_Pierini_Pieris_rapae,Pieris rapae,Pieris_rapae,RP,Pieridae,P,M,,NA,
209,72,9.549875,Speyeria diana,TRUE,119.50474,120,114.7298025,332.3076923,Nymphalidae_Heliconiinae_Argynnini_Argynnis_diana,Argynnis diana,Argynnis_diana,RL,Nymphalidae,L,U,,NA,
210,73,6.498463,Speyeria atlantis,TRUE,119.50474,121,116.2555085,335.0769231,Nymphalidae_Heliconiinae_Argynnini_Argynnis_atlantis,Argynnis atlantis,Argynnis_atlantis,RL,Nymphalidae,L,U,,NA,
210,74,6.498463,Speyeria cybele,TRUE,119.50474,122,116.2555085,337.8461538,Nymphalidae_Heliconiinae_Argynnini_Argynnis_cybele,Argynnis cybele,Argynnis_cybele,RL,Nymphalidae,L,U,,NA,
208,75,11.419501,Speyeria idalia,TRUE,119.50474,119,113.7949895,329.5384615,Nymphalidae_Heliconiinae_Argynnini_Argynnis_idalia,Argynnis idalia,Argynnis_idalia,RL,Nymphalidae,L,U,,NA,
213,76,16.638912,Boloria selene,TRUE,119.504741,127,111.185285,351.6923077,Nymphalidae_Heliconiinae_Argynnini_Boloria_selene,Boloria selene,Boloria_selene,RL,Nymphalidae,L,F,,NA,
215,77,12.193097,Boloria chariclea,TRUE,119.50474,129,113.4081915,357.2307692,Nymphalidae_Heliconiinae_Argynnini_Boloria_chariclea,Boloria chariclea,Boloria_chariclea,RL,Nymphalidae,NA,NA,NA,NA,NA
215,78,12.193097,Boloria freija,TRUE,119.50474,130,113.4081915,360,Nymphalidae_Heliconiinae_Argynnini_Boloria_freija,Boloria freija,Boloria_freija,RL,Nymphalidae,NA,NA,NA,NA,NA
214,79,15.871846,Boloria polaris,TRUE,119.50474,128,111.568817,354.4615385,Nymphalidae_Heliconiinae_Argynnini_Boloria_polaris,Boloria polaris,Boloria_polaris,RL,Nymphalidae,NA,NA,NA,NA,NA
216,80,13.147272,Boloria frigga,TRUE,119.50474,125,112.931104,346.1538462,Nymphalidae_Heliconiinae_Argynnini_Boloria_frigga,Boloria frigga,Boloria_frigga,RL,Nymphalidae,NA,NA,NA,NA,NA
216,81,13.147272,Boloria bellona,TRUE,119.50474,126,112.931104,348.9230769,Nymphalidae_Heliconiinae_Argynnini_Boloria_bellona,Boloria bellona,Boloria_bellona,RL,Nymphalidae,L,M,,NA,
217,82,18.66002,Boloria alaskensis,TRUE,119.50474,123,110.17473,340.6153846,Nymphalidae_Heliconiinae_Argynnini_Boloria_alaskensis,Boloria alaskensis,Boloria_alaskensis,RL,Nymphalidae,NA,NA,NA,NA,NA
217,83,18.660021,Boloria eunomia,TRUE,119.504741,124,110.1747305,343.3846154,Nymphalidae_Heliconiinae_Argynnini_Boloria_eunomia,Boloria eunomia,Boloria_eunomia,RL,Nymphalidae,NA,NA,NA,NA,NA
218,84,5.5917,Limenitis archippus,TRUE,119.504741,117,116.708891,324,Nymphalidae_Limenitidinae_Limenitidini_Limenitis_archippus,Limenitis archippus,Limenitis_archippus,RL,Nymphalidae,L,M,,NA,
218,85,5.5917,Limenitis arthemis,TRUE,119.504741,118,116.708891,326.7692308,Nymphalidae_Limenitidinae_Limenitidini_Limenitis_arthemis,Limenitis arthemis,Limenitis_arthemis,RL,Nymphalidae,L,M,,NA,
220,86,35.542826,Euphydryas phaeton,TRUE,119.50474,110,101.733327,304.6153846,Nymphalidae_Nymphalinae_Melitaeini_Euphydryas_phaeton,Euphydryas phaeton,Euphydryas_phaeton,RL,Nymphalidae,L,U,,NA,
223,87,14.234163,Chlosyne gorgone,TRUE,119.504739,112,112.3876575,310.1538462,Nymphalidae_Nymphalinae_Melitaeini_Chlosyne_gorgone,Chlosyne gorgone,Chlosyne_gorgone,RL,Nymphalidae,L,F,,NA,
223,88,14.234163,Chlosyne harrisii,TRUE,119.504739,113,112.3876575,312.9230769,Nymphalidae_Nymphalinae_Melitaeini_Chlosyne_harrisii,Chlosyne harrisii,Chlosyne_harrisii,RL,Nymphalidae,L,U,,NA,
222,89,15.552703,Chlosyne nycteis,TRUE,119.50474,111,111.7283885,307.3846154,Nymphalidae_Nymphalinae_Melitaeini_Chlosyne_nycteis,Chlosyne nycteis,Chlosyne_nycteis,RL,Nymphalidae,L,F,,NA,
224,90,5.618551,Phyciodes tharos,TRUE,119.504738,114,116.6954625,315.6923077,Nymphalidae_Nymphalinae_Melitaeini_Phyciodes_tharos,Phyciodes tharos,Phyciodes_tharos,RL,Nymphalidae,L,M,,NA,
225,91,3.305704,Phyciodes batesii,TRUE,119.504738,115,117.851886,318.4615385,Nymphalidae_Nymphalinae_Melitaeini_Phyciodes_batesii,Phyciodes batesii,Phyciodes_batesii,RL,Nymphalidae,NA,NA,NA,NA,NA
225,92,3.305704,Phyciodes cocyta,TRUE,119.504738,116,117.851886,321.2307692,Nymphalidae_Nymphalinae_Melitaeini_Phyciodes_cocyta,Phyciodes cocyta,Phyciodes_cocyta,RL,Nymphalidae,NA,NA,NA,NA,NA
226,93,8.497535,Asterocampa celtis,TRUE,119.504741,108,115.2559735,299.0769231,Nymphalidae_Apaturinae__Asterocampa_celtis,Asterocampa celtis,Asterocampa_celtis,RL,Nymphalidae,NA,NA,NA,NA,NA
226,94,8.497535,Asterocampa clyton,TRUE,119.504741,109,115.2559735,301.8461538,Nymphalidae_Apaturinae__Asterocampa_clyton,Asterocampa clyton,Asterocampa_clyton,RL,Nymphalidae,L,F,,NA,
227,95,59.077994,Enodia portlandia,TRUE,119.504743,95,89.965746,263.0769231,Nymphalidae_Satyrinae_Satyrini_Lethe_portlandia,Lethe portlandia,Lethe_portlandia,RL,Nymphalidae,L,M,,NA,
228,96,55.565568,Coenonympha tullia,TRUE,119.504743,96,91.721959,265.8461538,Nymphalidae_Satyrinae_Satyrini_Coenonympha_tullia,Coenonympha tullia,Coenonympha_tullia,RL,Nymphalidae,L,F,,NA,
231,97,1.656627,Neonympha mitchellii,TRUE,119.50474,98,118.6764265,271.3846154,Nymphalidae_Satyrinae_Satyrini_Neonympha_mitchellii,Neonympha mitchellii,Neonympha_mitchellii,RL,Nymphalidae,NA,NA,NA,NA,NA
232,98,0.767667,Neonympha helicta,TRUE,119.50474,99,119.1209065,274.1538462,Nymphalidae_Satyrinae_Satyrini_Neonympha_helicta,Neonympha helicta,Neonympha_helicta,RL,Nymphalidae,NA,NA,NA,NA,NA
232,99,0.767667,Neonympha areolatus,TRUE,119.50474,100,119.1209065,276.9230769,Nymphalidae_Satyrinae_Satyrini_Neonympha_areolatus,Neonympha areolatus,Neonympha_areolatus,RL,Nymphalidae,NA,NA,NA,NA,NA
230,100,47.732243,Cyllopsis gemma,TRUE,119.504742,97,95.6386205,268.6153846,Nymphalidae_Satyrinae_Satyrini_Cyllopsis_gemma,Cyllopsis gemma,Cyllopsis_gemma,RL,Nymphalidae,L,M,,NA,
233,101,44.11456,Erebia rossii,TRUE,119.504744,101,97.447464,279.6923077,Nymphalidae_Satyrinae_Satyrini_Erebia_rossii,Erebia rossii,Erebia_rossii,RL,Nymphalidae,NA,NA,NA,NA,NA
234,102,37.690079,Cercyonis pegala,TRUE,119.504742,102,100.6597025,282.4615385,Nymphalidae_Satyrinae_Satyrini_Cercyonis_pegala,Cercyonis pegala,Cercyonis_pegala,RL,Nymphalidae,L,U,,NA,
236,103,8.146296,Oeneis macounii,TRUE,119.504742,105,115.431594,290.7692308,Nymphalidae_Satyrinae_Satyrini_Oeneis_macounii,Oeneis macounii,Oeneis_macounii,RL,Nymphalidae,NA,NA,NA,NA,NA
237,104,3.547278,Oeneis chryxus,TRUE,119.504742,106,117.731103,293.5384615,Nymphalidae_Satyrinae_Satyrini_Oeneis_chryxus,Oeneis chryxus,Oeneis_chryxus,RL,Nymphalidae,NA,NA,NA,NA,NA
237,105,3.547278,Oeneis bore,TRUE,119.504742,107,117.731103,296.3076923,Nymphalidae_Satyrinae_Satyrini_Oeneis_bore,Oeneis bore,Oeneis_bore,RL,Nymphalidae,NA,NA,NA,NA,NA
238,106,3.745747,Oeneis jutta,TRUE,119.504743,103,117.6318695,285.2307692,Nymphalidae_Satyrinae_Satyrini_Oeneis_jutta,Oeneis jutta,Oeneis_jutta,RL,Nymphalidae,NA,NA,NA,NA,NA
238,107,3.745746,Oeneis polixenes,TRUE,119.504742,104,117.631869,288,Nymphalidae_Satyrinae_Satyrini_Oeneis_polixenes,Oeneis polixenes,Oeneis_polixenes,RL,Nymphalidae,NA,NA,NA,NA,NA
241,108,44.165526,Lycaena phlaeas,TRUE,119.504742,86,97.421979,238.1538462,Lycaenidae_Lycaeninae__Lycaena_phlaeas,Lycaena phlaeas,Lycaena_phlaeas,RL,Lycaenidae,M,F,,NA,
244,109,12.129383,Callophrys polios,TRUE,119.504742,88,113.4400505,243.6923077,Lycaenidae_Theclinae_Eumaeini_Callophrys_polios,Callophrys polios,Callophrys_polios,RP,Lycaenidae,NA,NA,NA,NA,NA
244,110,12.129384,Callophrys niphon,TRUE,119.504743,89,113.440051,246.4615385,Lycaenidae_Theclinae_Eumaeini_Callophrys_niphon,Callophrys niphon,Callophrys_niphon,RP,Lycaenidae,NA,NA,NA,NA,NA
247,111,4.348473,Satyrium acadica,TRUE,119.504743,93,117.3305065,257.5384615,Lycaenidae_Theclinae_Eumaeini_Satyrium_acadica,Satyrium acadica,Satyrium_acadica,RE,Lycaenidae,E,U,,NA,
247,112,4.348473,Satyrium calanus,TRUE,119.504743,94,117.3305065,260.3076923,Lycaenidae_Theclinae_Eumaeini_Satyrium_calanus,Satyrium calanus,Satyrium_calanus,RE,Lycaenidae,E,U,,NA,
246,113,11.114027,Satyrium liparops,TRUE,119.504743,92,113.9477295,254.7692308,Lycaenidae_Theclinae_Eumaeini_Satyrium_liparops,Satyrium liparops,Satyrium_liparops,RE,Lycaenidae,NA,NA,NA,NA,NA
248,114,22.374777,Atlides halesus,TRUE,119.504741,90,108.3173525,249.2307692,Lycaenidae_Theclinae_Eumaeini_Atlides_halesus,Atlides halesus,Atlides_halesus,RP,Lycaenidae,P,M,,NA,
248,115,22.374777,Strymon melinus,TRUE,119.504741,91,108.3173525,252,Lycaenidae_Theclinae_Eumaeini_Strymon_melinus,Strymon melinus,Strymon_melinus,RP,Lycaenidae,P,M,,NA,
242,116,31.587065,Calycopis cecrops,TRUE,119.504742,87,103.7112095,240.9230769,Lycaenidae_Theclinae_Eumaeini_Calycopis_cecrops,Calycopis cecrops,Calycopis_cecrops,RL,Lycaenidae,L,M,,NA,
250,117,24.658015,Leptotes cassius,TRUE,119.504742,81,107.1757345,224.3076923,Lycaenidae_Polyommatinae_Polyommatini_Leptotes_cassius,Leptotes cassius,Leptotes_cassius,RP,Lycaenidae,P,M,,NA,
250,118,24.658015,Glaucopsyche lygdamus,TRUE,119.504742,82,107.1757345,227.0769231,Lycaenidae_Polyommatinae_Polyommatini_Glaucopsyche_lygdamus,Glaucopsyche lygdamus,Glaucopsyche_lygdamus,RP,Lycaenidae,P,U,,NA,
252,119,0.228881,Celastrina ladon,TRUE,119.504741,84,119.3903005,232.6153846,Lycaenidae_Polyommatinae_Polyommatini_Celastrina_ladon,Celastrina ladon,Celastrina_ladon,RP,Lycaenidae,P,M,,NA,
252,120,0.228881,Celastrina neglectamajor,TRUE,119.504741,85,119.3903005,235.3846154,Lycaenidae_Polyommatinae_Polyommatini_Celastrina_neglectamajor,Celastrina neglectamajor,Celastrina_neglectamajor,RP,Lycaenidae,NA,NA,NA,NA,NA
251,121,24.595545,Plebejus idas,TRUE,119.504739,83,107.2069665,229.8461538,Lycaenidae_Polyommatinae_Polyommatini_Plebejus_idas,Plebejus idas,Plebejus_idas,RE,Lycaenidae,NA,NA,NA,NA,NA
253,122,21.455556,Calephelis virginiensis,TRUE,119.504743,79,108.776965,218.7692308,Riodinidae_Riodininae_Riodinini_Calephelis_virginiensis,Calephelis virginiensis,Calephelis_virginiensis,RL,Riodinidae,L,M,,NA,
253,123,21.455555,Calephelis borealis,TRUE,119.504742,80,108.7769645,221.5384615,Riodinidae_Riodininae_Riodinini_Calephelis_borealis,Calephelis borealis,Calephelis_borealis,RL,Riodinidae,L,U,,NA,
257,124,31.73079,Papilio troilus,TRUE,119.50474,4,103.639345,11.07692308,Papilionidae_Papilioninae_Papilionini_Pterourus_troilus,Pterourus troilus,Pterourus_troilus,RP,Papilionidae,P,M,,NA,
258,125,7.424116,Papilio multicaudata,TRUE,119.504739,5,115.792681,13.84615385,Papilionidae_Papilioninae_Papilionini_Pterourus_multicaudata,Pterourus multicaudata,Pterourus_multicaudata,RP,Papilionidae,P,U,,NA,
259,126,2.669216,Papilio canadensis,TRUE,119.50474,6,118.170132,16.61538462,Papilionidae_Papilioninae_Papilionini_Pterourus_canadensis,Pterourus canadensis,Pterourus_canadensis,RP,Papilionidae,P,U,,NA,
259,127,2.669216,Papilio glaucus,TRUE,119.50474,7,118.170132,19.38461538,Papilionidae_Papilioninae_Papilionini_Pterourus_glaucus,Pterourus glaucus,Pterourus_glaucus,RP,Papilionidae,P,M,,NA,
256,128,37.233742,Papilio machaon,TRUE,119.50474,3,100.887869,8.307692308,Papilionidae_Papilioninae_Papilionini_Papilio_machaon,Papilio machaon,Papilio_machaon,RP,Papilionidae,NA,NA,NA,NA,NA
255,129,40.097963,Papilio cresphontes,TRUE,119.50474,2,99.4557585,5.538461538,Papilionidae_Papilioninae_Papilionini_Heraclides_cresphontes,Heraclides cresphontes,Heraclides_cresphontes,RP,Papilionidae,P,M,,NA,
254,130,59.39373,Battus philenor,TRUE,119.50474,1,89.807875,2.769230769,Papilionidae_Papilioninae_Troidini_Battus_philenor,Battus philenor,Battus_philenor,RP,Papilionidae,P,M,,NA,
